[{"OBJECT_NAME":"COSMOS 2437","OBJECT_ID":"2008-025B","EPOCH":"2026-03-09T22:53:31.166016","MEAN_MOTION":12.42757373,"ECCENTRICITY":0.00203206,"INCLINATION":82.4982,"RA_OF_ASC_NODE":59.1511,"ARG_OF_PERICENTER":182.6934,"MEAN_ANOMALY":270.119,"EPHEMERIS_TYPE":0,"CLASSIFICATION_TYPE":"U","NORAD_CAT_ID":32954,"ELEMENT_SET_NO":999,"REV_AT_EPOCH":80704,"BSTAR":0.00093092116,"MEAN_MOTION_DOT":1.39e-6,"MEAN_MOTION_DDOT":0},{"OBJECT_NAME":"DELTA 1 DEB","OBJECT_ID":"1973-086BS","EPOCH":"2026-03-09T06:55:33.590208","MEAN_MOTION":12.72203366,"ECCENTRICITY":0.01759889,"INCLINATION":101.9237,"RA_OF_ASC_NODE":176.9272,"ARG_OF_PERICENTER":309.3282,"MEAN_ANOMALY":73.7074,"EPHEMERIS_TYPE":0,"CLASSIFICATION_TYPE":"U","NORAD_CAT_ID":7074,"ELEMENT_SET_NO":999,"REV_AT_EPOCH":42956,"BSTAR":0.00017336866,"MEAN_MOTION_DOT":-1.2e-7,"MEAN_MOTION_DDOT":0}]
